NORAD_CAT_ID,OBJECT_NAME,OBJECT_TYPE,EPOCH,MEAN_MOTION,ECCENTRICITY,INCLINATION,RA_OF_ASC_NODE,ARG_OF_PERICENTER,MEAN_ANOMALY,BSTAR,MEAN_MOTION_DOT,MEAN_MOTION_DDOT,TLE_LINE0,TLE_LINE1,TLE_LINE2,SEMIMAJOR_AXIS,PERIOD,APOGEE,PERIGEE,DECAYED
53718.0,STARLINK-4695,PAYLOAD,2024-04-27 04:07:44,15.08833256,0.0001523,53.2196,73.8411,89.014,271.1027,8.1418e-05,1.008e-05,0.0,0 STARLINK-4695,1 53718U 22107U   24118.17204447  .00001008  00000-0  81418-4 0  9996,2 53718  53.2196  73.8411 0001523  89.0140 271.1027 15.08833256 91066,6917.901,95.438,540.82,538.712,0.0
53718.0,STARLINK-4695,PAYLOAD,2024-04-27 13:40:01,15.08851621,0.0001368,53.2185,72.0474,85.1138,275.001,0.00017446,2.491e-05,0.0,0 STARLINK-4695,1 53718U 22107U   24118.56946697  .00002491  00000-0  17446-3 0  9995,2 53718  53.2185  72.0474 0001368  85.1138 275.0010 15.08851621 91572,6917.845,95.437,540.656,538.764,0.0
53718.0,STARLINK-4695,PAYLOAD,2024-04-28 03:58:32,15.08822663,0.0001299,53.2174,69.3777,110.5384,249.5748,-0.00016467,-2.906e-05,0.0,0 STARLINK-4695,1 53718U 22107U   24119.16565918 -.00002906  00000-0 -16467-3 0  9990,2 53718  53.2174  69.3777 0001299 110.5384 249.5748 15.08822663 91213,6917.933,95.439,540.697,538.9,0.0
53718.0,STARLINK-4695,PAYLOAD,2024-04-28 07:09:18,15.08830706,0.0001313,53.218,68.7807,105.7299,254.3838,-8.4388e-05,-1.63e-05,0.0,0 STARLINK-4695,1 53718U 22107U   24119.29813353 -.00001630  00000-0 -84388-4 0  9994,2 53718  53.2180  68.7807 0001313 105.7299 254.3838 15.08830706 91238,6917.909,95.438,540.682,538.865,0.0
53718.0,STARLINK-4695,PAYLOAD,2024-04-29 03:49:19,15.08838154,0.0001511,53.2185,64.9153,100.7542,259.362,0.00010752,1.424e-05,0.0,0 STARLINK-4695,1 53718U 22107U   24120.15924892  .00001424  00000-0  10752-3 0  9994,2 53718  53.2185  64.9153 0001511 100.7542 259.3620 15.08838154 91364,6917.886,95.438,540.796,538.706,0.0
53718.0,STARLINK-4695,PAYLOAD,2024-04-29 13:21:37,15.08852831,0.0001406,53.2178,63.1299,93.262,266.8533,0.00022328,3.269e-05,0.0,0 STARLINK-4695,1 53718U 22107U   24120.55668146  .00003269  00000-0  22328-3 0  9996,2 53718  53.2178  63.1299 0001406  93.2620 266.8533 15.08852831 91425,6917.841,95.437,540.679,538.734,0.0
53718.0,STARLINK-4695,PAYLOAD,2024-04-29 19:43:11,15.08825931,0.0001585,53.2181,61.9418,101.7273,258.3897,0.0002468,3.641e-05,0.0,0 STARLINK-4695,1 53718U 22107U   24120.82165692  .00003641  00000-0  24680-3 0  9991,2 53718  53.2181  61.9418 0001585 101.7273 258.3897 15.08825931 91469,6917.923,95.438,540.885,538.692,0.0
53718.0,STARLINK-4695,PAYLOAD,2024-04-30 05:15:29,15.08845447,0.000142,53.2169,60.1568,102.0074,258.1077,0.00026812,3.982e-05,0.0,0 STARLINK-4695,1 53718U 22107U   24121.21908783  .00003982  00000-0  26812-3 0  9998,2 53718  53.2169  60.1568 0001420 102.0074 258.1077 15.08845447 91522,6917.864,95.437,540.711,538.746,0.0
53718.0,STARLINK-4695,PAYLOAD,2024-04-30 13:12:24,15.088557,0.0001231,53.2168,58.6702,98.9312,261.182,0.00039931,6.076e-05,0.0,0 STARLINK-4695,1 53718U 22107U   24121.55028329  .00006076  00000-0  39931-3 0  9997,2 53718  53.2168  58.6702 0001231  98.9312 261.1820 15.08855700 92020,6917.832,95.437,540.549,538.846,0.0
53718.0,STARLINK-4695,PAYLOAD,2024-05-01 13:03:11,15.08857942,0.0001436,53.2167,54.2086,99.0575,261.0579,0.00058778,9.083e-05,0.0,0 STARLINK-4695,1 53718U 22107U   24122.54388091  .00009083  00000-0  58778-3 0  9993,2 53718  53.2167  54.2086 0001436  99.0575 261.0579 15.08857942 91722,6917.826,95.436,540.684,538.697,0.0
53718.0,STARLINK-4695,PAYLOAD,2024-05-02 04:57:02,15.08846599,0.0001385,53.2162,51.2357,89.1567,270.9584,0.00058006,8.957e-05,0.0,0 STARLINK-4695,1 53718U 22107U   24123.20628285  .00008957  00000-0  58006-3 0  9992,2 53718  53.2162  51.2357 0001385  89.1567 270.9584 15.08846599 91821,6917.86,95.437,540.683,538.767,0.0
53718.0,STARLINK-4695,PAYLOAD,2024-05-03 04:47:49,15.08857764,0.0001361,53.2182,46.7733,93.4145,266.7003,0.00056684,8.749e-05,0.0,0 STARLINK-4695,1 53718U 22107U   24124.19987758  .00008749  00000-0  56684-3 0  9993,2 53718  53.2182  46.7733 0001361  93.4145 266.7003 15.08857764 91975,6917.826,95.436,540.633,538.75,0.0
53718.0,STARLINK-4695,PAYLOAD,2024-05-03 19:06:17,15.08843832,0.0001286,53.2168,44.0993,90.1515,269.9624,0.00030499,4.57e-05,0.0,0 STARLINK-4695,1 53718U 22107U   24124.79604089  .00004570  00000-0  30499-3 0  9996,2 53718  53.2168  44.0993 0001286  90.1515 269.9624 15.08843832 92065,6917.869,95.437,540.623,538.844,0.0
53718.0,STARLINK-4695,PAYLOAD,2024-05-03 22:17:04,15.08838022,0.0001333,53.2167,43.5032,105.5523,254.5617,1.3868e-05,-6.7e-07,0.0,0 STARLINK-4695,1 53718U 22107U   24124.92852266 -.00000067  00000-0  13868-4 0  9993,2 53718  53.2167  43.5032 0001333 105.5523 254.5617 15.08838022 92534,6917.886,95.438,540.674,538.829,0.0
53718.0,STARLINK-4695,PAYLOAD,2024-05-04 11:00:07,15.08876178,5.65e-05,53.2181,41.1231,61.497,298.6079,0.0008257,0.00012891,0.0,0 STARLINK-4695,1 53718U 22107U   24125.45842507  .00012891  00000-0  82570-3 0  9991,2 53718  53.2181  41.1231 0000565  61.4970 298.6079 15.08876178 92161,6917.77,95.435,540.026,539.244,0.0
53718.0,STARLINK-4695,PAYLOAD,2024-05-04 18:57:05,15.08826081,0.0001359,53.2171,39.6382,88.2042,271.9106,-0.00028842,-4.873e-05,0.0,0 STARLINK-4695,1 53718U 22107U   24125.78964515 -.00004873  00000-0 -28842-3 0  9996,2 53718  53.2171  39.6382 0001359  88.2042 271.9106 15.08826081 92217,6917.923,95.438,540.728,538.848,0.0
53718.0,STARLINK-4695,PAYLOAD,2024-05-05 04:29:24,15.08831365,0.0001367,53.2178,37.8553,93.724,266.3908,6.0232e-06,-1.92e-06,0.0,0 STARLINK-4695,1 53718U 22107U   24126.18708716 -.00000192  00000-0  60232-5 0  9990,2 53718  53.2178  37.8553 0001367  93.7240 266.3908 15.08831365 92279,6917.907,95.438,540.717,538.826,0.0
53718.0,STARLINK-4695,PAYLOAD,2024-05-05 21:58:39,15.08840269,0.0001406,53.218,34.5847,96.3527,263.7625,0.00033166,4.994e-05,0.0,0 STARLINK-4695,1 53718U 22107U   24126.91573059  .00004994  00000-0  33166-3 0  9998,2 53718  53.2180  34.5847 0001406  96.3527 263.7625 15.08840269 92835,6917.88,95.438,540.717,538.772,0.0
53718.0,STARLINK-4695,PAYLOAD,2024-05-06 10:41:43,15.08868002,0.0001368,53.218,32.2049,84.637,275.4778,0.0013843,0.00021829,0.0,0 STARLINK-4695,1 53718U 22107U   24127.44564692  .00021829  00000-0  13843-2 0  9995,2 53718  53.2180  32.2049 0001368  84.6370 275.4778 15.08868002 92460,6917.795,95.436,540.606,538.713,0.0
53718.0,STARLINK-4695,PAYLOAD,2024-05-06 21:49:25,15.0885458,0.0001551,53.218,30.1245,91.0502,269.0668,0.00059373,9.178e-05,0.0,0 STARLINK-4695,1 53718U 22107U   24127.90932713  .00009178  00000-0  59373-3 0  9991,2 53718  53.2180  30.1245 0001551  91.0502 269.0668 15.08854580 92988,6917.836,95.437,540.774,538.628,0.0
53718.0,STARLINK-4695,PAYLOAD,2024-05-07 02:35:35,15.08861975,0.000143,53.2177,29.232,90.125,269.9906,0.00085165,0.000133,0.0,0 STARLINK-4695,1 53718U 22107U   24128.10804446  .00013300  00000-0  85165-3 0  9995,2 53718  53.2177  29.2320 0001430  90.1250 269.9906 15.08861975 92567,6917.813,95.436,540.667,538.689,0.0
53718.0,STARLINK-4695,PAYLOAD,2024-05-07 10:32:30,15.08878223,0.0001576,53.218,27.7451,69.3928,290.7233,0.0013542,0.00021352,0.0,0 STARLINK-4695,1 53718U 22107U   24128.43923955  .00021352  00000-0  13542-2 0  9993,2 53718  53.2180  27.7451 0001576  69.3928 290.7233 15.08878223 93065,6917.764,95.435,540.719,538.538,0.0
53718.0,STARLINK-4695,PAYLOAD,2024-05-07 16:54:03,15.08832687,0.000143,53.2176,26.5567,81.0642,279.0512,-0.00031763,-5.338e-05,0.0,0 STARLINK-4695,1 53718U 22107U   24128.70420419 -.00005338  00000-0 -31763-3 0  9994,2 53718  53.2176  26.5567 0001430  81.0642 279.0512 15.08832687 92656,6917.903,95.438,540.757,538.778,0.0
53718.0,STARLINK-4695,PAYLOAD,2024-05-07 21:40:12,15.08830013,0.000127,53.2176,25.6641,86.3593,273.7544,-2.3248e-05,-6.58e-06,0.0,0 STARLINK-4695,1 53718U 22107U   24128.90292629 -.00000658  00000-0 -23248-4 0  9996,2 53718  53.2176  25.6641 0001270  86.3593 273.7544 15.08830013 93135,6917.911,95.438,540.654,538.897,0.0
53718.0,STARLINK-4695,PAYLOAD,2024-05-08 10:23:18,15.08837417,0.0001399,53.2171,23.2851,74.9458,285.1689,0.0013833,0.00021794,0.0,0 STARLINK-4695,1 53718U 22107U   24129.43285290  .00021794  00000-0  13833-2 0  9990,2 53718  53.2171  23.2851 0001399  74.9458 285.1689 15.08837417 93213,6917.888,95.438,540.721,538.785,0.0
53718.0,STARLINK-4695,PAYLOAD,2024-05-08 21:31:00,15.0883911,0.0001899,53.2176,21.2032,88.3926,271.7284,0.0011266,0.00017687,0.0,0 STARLINK-4695,1 53718U 22107U   24129.89653770  .00017687  00000-0  11266-2 0  9996,2 53718  53.2176  21.2032 0001899  88.3926 271.7284 15.08839110 92832,6917.883,95.438,541.062,538.434,0.0
53718.0,STARLINK-4695,PAYLOAD,2024-05-08 23:06:23,15.08837695,0.0001519,53.217,20.9049,92.3976,267.719,0.00071051,0.00011037,0.0,0 STARLINK-4695,1 53718U 22107U   24129.96277645  .00011037  00000-0  71051-3 0  9999,2 53718  53.2170  20.9049 0001519  92.3976 267.7190 15.08837695 93297,6917.887,95.438,540.803,538.702,0.0
53718.0,STARLINK-4695,PAYLOAD,2024-05-09 02:17:10,15.08839661,0.0001566,53.2175,20.31,91.1591,268.958,0.00067885,0.00010532,0.0,0 STARLINK-4695,1 53718U 22107U   24130.09525680  .00010532  00000-0  67885-3 0  9999,2 53718  53.2175  20.3100 0001566  91.1591 268.9580 15.08839661 92869,6917.881,95.438,540.83,538.663,0.0
53718.0,STARLINK-4695,PAYLOAD,2024-05-09 21:21:47,15.08848899,0.0001517,53.2168,16.7421,87.5695,272.5471,0.00055246,8.517e-05,0.0,0 STARLINK-4695,1 53718U 22107U   24130.89013574  .00008517  00000-0  55246-3 0  9999,2 53718  53.2168  16.7421 0001517  87.5695 272.5471 15.08848899 93433,6917.853,95.437,540.768,538.669,0.0
53718.0,STARLINK-4695,PAYLOAD,2024-05-10 02:07:57,15.088512,0.000143,53.2183,15.8488,91.6357,268.4799,0.00051017,7.843e-05,0.0,0 STARLINK-4695,1 53718U 22107U   24131.08885443  .00007843  00000-0  51017-3 0  9996,2 53718  53.2183  15.8488 0001430  91.6357 268.4799 15.08851200 93019,6917.846,95.437,540.7,538.722,0.0
